[{"OBJECT_NAME":"TDRS 3","OBJECT_ID":"1988-091B","EPOCH":"2026-03-14T04:51:38.553120","MEAN_MOTION":1.00275639,"ECCENTRICITY":0.00424289,"INCLINATION":12.6751,"RA_OF_ASC_NODE":341.6235,"ARG_OF_PERICENTER":353.8077,"MEAN_ANOMALY":220.4028,"EPHEMERIS_TYPE":0,"CLASSIFICATION_TYPE":"U","NORAD_CAT_ID":19548,"ELEMENT_SET_NO":999,"REV_AT_EPOCH":12443,"BSTAR":0,"MEAN_MOTION_DOT":-2.91e-6,"MEAN_MOTION_DDOT":0},{"OBJECT_NAME":"FLTSATCOM 8 (USA 46)","OBJECT_ID":"1989-077A","EPOCH":"2026-03-10T16:59:38.792832","MEAN_MOTION":1.00259729,"ECCENTRICITY":0.00086132,"INCLINATION":12.4485,"RA_OF_ASC_NODE":351.7539,"ARG_OF_PERICENTER":336.9218,"MEAN_ANOMALY":219.8374,"EPHEMERIS_TYPE":0,"CLASSIFICATION_TYPE":"U","NORAD_CAT_ID":20253,"ELEMENT_SET_NO":999,"REV_AT_EPOCH":25957,"BSTAR":0,"MEAN_MOTION_DOT":-3.63e-6,"MEAN_MOTION_DDOT":0},{"OBJECT_NAME":"SKYNET 4C","OBJECT_ID":"1990-079A","EPOCH":"2026-03-13T22:23:52.120032","MEAN_MOTION":1.00275698,"ECCENTRICITY":0.00033022,"INCLINATION":13.3702,"RA_OF_ASC_NODE":350.4594,"ARG_OF_PERICENTER":17.1185,"MEAN_ANOMALY":173.3126,"EPHEMERIS_TYPE":0,"CLASSIFICATION_TYPE":"U","NORAD_CAT_ID":20776,"ELEMENT_SET_NO":999,"REV_AT_EPOCH":12993,"BSTAR":0,"MEAN_MOTION_DOT":1.34e-6,"MEAN_MOTION_DDOT":0},{"OBJECT_NAME":"TDRS 5","OBJECT_ID":"1991-054B","EPOCH":"2026-03-14T13:14:38.571648","MEAN_MOTION":1.00270774,"ECCENTRICITY":0.00098439,"INCLINATION":14.083,"RA_OF_ASC_NODE":354.4745,"ARG_OF_PERICENTER":276.6361,"MEAN_ANOMALY":292.034,"EPHEMERIS_TYPE":0,"CLASSIFICATION_TYPE":"U","NORAD_CAT_ID":21639,"ELEMENT_SET_NO":999,"REV_AT_EPOCH":12676,"BSTAR":0,"MEAN_MOTION_DOT":9.1e-7,"MEAN_MOTION_DDOT":0},{"OBJECT_NAME":"TDRS 6","OBJECT_ID":"1993-003B","EPOCH":"2026-03-14T03:51:41.429088","MEAN_MOTION":1.00275205,"ECCENTRICITY":0.00051604,"INCLINATION":14.1813,"RA_OF_ASC_NODE":357.7641,"ARG_OF_PERICENTER":196.867,"MEAN_ANOMALY":349.2379,"EPHEMERIS_TYPE":0,"CLASSIFICATION_TYPE":"U","NORAD_CAT_ID":22314,"ELEMENT_SET_NO":999,"REV_AT_EPOCH":12145,"BSTAR":0,"MEAN_MOTION_DOT":-2.88e-6,"MEAN_MOTION_DDOT":0},{"OBJECT_NAME":"UFO 2 (USA 95)","OBJECT_ID":"1993-056A","EPOCH":"2026-03-13T22:56:38.808672","MEAN_MOTION":1.00277482,"ECCENTRICITY":0.00089022,"INCLINATION":11.8619,"RA_OF_ASC_NODE":4.0709,"ARG_OF_PERICENTER":340.6781,"MEAN_ANOMALY":199.7212,"EPHEMERIS_TYPE":0,"CLASSIFICATION_TYPE":"U","NORAD_CAT_ID":22787,"ELEMENT_SET_NO":999,"REV_AT_EPOCH":11759,"BSTAR":0,"MEAN_MOTION_DOT":1.31e-6,"MEAN_MOTION_DDOT":0},{"OBJECT_NAME":"USA 99 (MILSTAR-1 1)","OBJECT_ID":"1994-009A","EPOCH":"2026-03-14T10:18:28.748160","MEAN_MOTION":1.00271431,"ECCENTRICITY":0.00037466,"INCLINATION":17.4767,"RA_OF_ASC_NODE":28.7272,"ARG_OF_PERICENTER":314.7133,"MEAN_ANOMALY":253.2244,"EPHEMERIS_TYPE":0,"CLASSIFICATION_TYPE":"U","NORAD_CAT_ID":22988,"ELEMENT_SET_NO":999,"REV_AT_EPOCH":3200,"BSTAR":0,"MEAN_MOTION_DOT":-1.91e-6,"MEAN_MOTION_DDOT":0},{"OBJECT_NAME":"UFO 4 (USA 108)","OBJECT_ID":"1995-003A","EPOCH":"2026-03-14T13:57:38.725344","MEAN_MOTION":1.00274693,"ECCENTRICITY":0.00037084,"INCLINATION":9.6799,"RA_OF_ASC_NODE":13.5384,"ARG_OF_PERICENTER":341.7206,"MEAN_ANOMALY":198.6728,"EPHEMERIS_TYPE":0,"CLASSIFICATION_TYPE":"U","NORAD_CAT_ID":23467,"ELEMENT_SET_NO":999,"REV_AT_EPOCH":11400,"BSTAR":0,"MEAN_MOTION_DOT":-1.6e-7,"MEAN_MOTION_DDOT":0},{"OBJECT_NAME":"TDRS 7","OBJECT_ID":"1995-035B","EPOCH":"2026-03-14T15:09:59.509728","MEAN_MOTION":1.00273812,"ECCENTRICITY":0.00086574,"INCLINATION":13.4164,"RA_OF_ASC_NODE":348.8396,"ARG_OF_PERICENTER":48.9959,"MEAN_ANOMALY":91.0029,"EPHEMERIS_TYPE":0,"CLASSIFICATION_TYPE":"U","NORAD_CAT_ID":23613,"ELEMENT_SET_NO":999,"REV_AT_EPOCH":11230,"BSTAR":0,"MEAN_MOTION_DOT":-2.32e-6,"MEAN_MOTION_DDOT":0},{"OBJECT_NAME":"USA 115 (MILSTAR-1 2)","OBJECT_ID":"1995-060A","EPOCH":"2026-03-14T09:38:54.883104","MEAN_MOTION":1.00272217,"ECCENTRICITY":0.00035751,"INCLINATION":14.039,"RA_OF_ASC_NODE":4.4477,"ARG_OF_PERICENTER":345.8273,"MEAN_ANOMALY":206.4536,"EPHEMERIS_TYPE":0,"CLASSIFICATION_TYPE":"U","NORAD_CAT_ID":23712,"ELEMENT_SET_NO":999,"REV_AT_EPOCH":3193,"BSTAR":0,"MEAN_MOTION_DOT":-1.3e-7,"MEAN_MOTION_DDOT":0},{"OBJECT_NAME":"INMARSAT 3-F1","OBJECT_ID":"1996-020A","EPOCH":"2026-03-14T05:07:38.699040","MEAN_MOTION":0.99999837,"ECCENTRICITY":0.00056874,"INCLINATION":10.4052,"RA_OF_ASC_NODE":47.4938,"ARG_OF_PERICENTER":279.6019,"MEAN_ANOMALY":282.2684,"EPHEMERIS_TYPE":0,"CLASSIFICATION_TYPE":"U","NORAD_CAT_ID":23839,"ELEMENT_SET_NO":999,"REV_AT_EPOCH":10930,"BSTAR":0,"MEAN_MOTION_DOT":-5.4e-7,"MEAN_MOTION_DDOT":0},{"OBJECT_NAME":"INMARSAT 3-F2","OBJECT_ID":"1996-053A","EPOCH":"2026-03-14T13:05:30.798240","MEAN_MOTION":0.99978974,"ECCENTRICITY":0.00062234,"INCLINATION":9.6438,"RA_OF_ASC_NODE":54.884,"ARG_OF_PERICENTER":302.9586,"MEAN_ANOMALY":254.7043,"EPHEMERIS_TYPE":0,"CLASSIFICATION_TYPE":"U","NORAD_CAT_ID":24307,"ELEMENT_SET_NO":999,"REV_AT_EPOCH":10797,"BSTAR":0,"MEAN_MOTION_DOT":1.7e-7,"MEAN_MOTION_DDOT":0},{"OBJECT_NAME":"INMARSAT 3-F3","OBJECT_ID":"1996-070A","EPOCH":"2026-03-14T07:28:14.915136","MEAN_MOTION":0.99999003,"ECCENTRICITY":0.00065254,"INCLINATION":10.1147,"RA_OF_ASC_NODE":50.5462,"ARG_OF_PERICENTER":279.5441,"MEAN_ANOMALY":95.5112,"EPHEMERIS_TYPE":0,"CLASSIFICATION_TYPE":"U","NORAD_CAT_ID":24674,"ELEMENT_SET_NO":999,"REV_AT_EPOCH":10696,"BSTAR":0,"MEAN_MOTION_DOT":-3.06e-6,"MEAN_MOTION_DDOT":0},{"OBJECT_NAME":"AMC-3","OBJECT_ID":"1997-050A","EPOCH":"2026-03-14T09:52:38.567136","MEAN_MOTION":1.00271097,"ECCENTRICITY":0.00035561,"INCLINATION":7.9128,"RA_OF_ASC_NODE":65.1555,"ARG_OF_PERICENTER":304.3619,"MEAN_ANOMALY":238.664,"EPHEMERIS_TYPE":0,"CLASSIFICATION_TYPE":"U","NORAD_CAT_ID":24936,"ELEMENT_SET_NO":999,"REV_AT_EPOCH":5148,"BSTAR":0,"MEAN_MOTION_DOT":-2.59e-6,"MEAN_MOTION_DDOT":0},{"OBJECT_NAME":"USA 134","OBJECT_ID":"1997-065A","EPOCH":"2026-03-14T09:41:17.156256","MEAN_MOTION":1.00270109,"ECCENTRICITY":0.00064211,"INCLINATION":12.6717,"RA_OF_ASC_NODE":22.4204,"ARG_OF_PERICENTER":312.8908,"MEAN_ANOMALY":229.8378,"EPHEMERIS_TYPE":0,"CLASSIFICATION_TYPE":"U","NORAD_CAT_ID":25019,"ELEMENT_SET_NO":999,"REV_AT_EPOCH":3200,"BSTAR":0,"MEAN_MOTION_DOT":-5.7e-7,"MEAN_MOTION_DDOT":0},{"OBJECT_NAME":"INMARSAT 3-F5","OBJECT_ID":"1998-006B","EPOCH":"2026-03-14T10:47:59.572320","MEAN_MOTION":1.00272558,"ECCENTRICITY":0.00051803,"INCLINATION":9.4812,"RA_OF_ASC_NODE":54.1825,"ARG_OF_PERICENTER":303.9814,"MEAN_ANOMALY":281.942,"EPHEMERIS_TYPE":0,"CLASSIFICATION_TYPE":"U","NORAD_CAT_ID":25153,"ELEMENT_SET_NO":999,"REV_AT_EPOCH":10294,"BSTAR":0,"MEAN_MOTION_DOT":-2.86e-6,"MEAN_MOTION_DDOT":0},{"OBJECT_NAME":"ABS-6","OBJECT_ID":"1999-053A","EPOCH":"2026-03-13T17:51:43.219872","MEAN_MOTION":1.00271782,"ECCENTRICITY":0.00028613,"INCLINATION":0.0254,"RA_OF_ASC_NODE":225.9146,"ARG_OF_PERICENTER":115.9128,"MEAN_ANOMALY":256.4847,"EPHEMERIS_TYPE":0,"CLASSIFICATION_TYPE":"U","NORAD_CAT_ID":25924,"ELEMENT_SET_NO":999,"REV_AT_EPOCH":9688,"BSTAR":0,"MEAN_MOTION_DOT":-1.2e-6,"MEAN_MOTION_DDOT":0}]
