TDRS 3                  
1 19548U 88091B   26073.20252955 -.00000291  00000+0  00000+0 0  9992
2 19548  12.6751 341.6235 0042428 353.8077 220.4028  1.00275639124433
FLTSATCOM 8 (USA 46)    
1 20253U 89077A   26069.70808788 -.00000363  00000+0  00000+0 0  9993
2 20253  12.4485 351.7539 0008613 336.9218 219.8374  1.00259729259578
SKYNET 4C               
1 20776U 90079A   26072.93324213  .00000134  00000+0  00000+0 0  9997
2 20776  13.3702 350.4594 0003302  17.1185 173.3126  1.00275698129936
TDRS 5                  
1 21639U 91054B   26073.55183532  .00000091  00000+0  00000+0 0  9998
2 21639  14.0830 354.4745 0009843 276.6361 292.0340  1.00270774126766
TDRS 6                  
1 22314U 93003B   26073.16089617 -.00000288  00000+0  00000+0 0  9990
2 22314  14.1813 357.7641 0005160 196.8670 349.2379  1.00275205121456
UFO 2 (USA 95)          
1 22787U 93056A   26072.95600473  .00000131  00000+0  00000+0 0  9993
2 22787  11.8619   4.0709 0008902 340.6781 199.7212  1.00277482117597
USA 99 (MILSTAR-1 1)    
1 22988U 94009A   26073.42949940 -.00000191  00000+0  00000+0 0  9990
2 22988  17.4767  28.7272 0003746 314.7133 253.2244  1.00271431 32009
UFO 4 (USA 108)         
1 23467U 95003A   26073.58169821 -.00000016  00000+0  00000+0 0  9993
2 23467   9.6799  13.5384 0003708 341.7206 198.6728  1.00274693114008
TDRS 7                  
1 23613U 95035B   26073.63193877 -.00000232  00000+0  00000+0 0  9995
2 23613  13.4164 348.8396 0008657  48.9959  91.0029  1.00273812112309
USA 115 (MILSTAR-1 2)   
1 23712U 95060A   26073.40202411 -.00000013  00000+0  00000+0 0  9990
2 23712  14.0390   4.4477 0003575 345.8273 206.4536  1.00272217 31936
INMARSAT 3-F1           
1 23839U 96020A   26073.21364235 -.00000054  00000+0  00000+0 0  9994
2 23839  10.4052  47.4938 0005687 279.6019 282.2684  0.99999837109302
INMARSAT 3-F2           
1 24307U 96053A   26073.54549535  .00000017  00000+0  00000+0 0  9993
2 24307   9.6438  54.8840 0006223 302.9586 254.7043  0.99978974107974
INMARSAT 3-F3           
1 24674U 96070A   26073.31128374 -.00000306  00000+0  00000+0 0  9990
2 24674  10.1147  50.5462 0006525 279.5441  95.5112  0.99999003106964
AMC-3                   
1 24936U 97050A   26073.41155749 -.00000259  00000+0  00000+0 0  9994
2 24936   7.9128  65.1555 0003556 304.3619 238.6640  1.00271097 51489
USA 134                 
1 25019U 97065A   26073.40367079 -.00000057  00000+0  00000+0 0  9999
2 25019  12.6717  22.4204 0006421 312.8908 229.8378  1.00270109 32005
INMARSAT 3-F5           
1 25153U 98006B   26073.44999505 -.00000286  00000+0  00000+0 0  9997
2 25153   9.4812  54.1825 0005180 303.9814 281.9420  1.00272558102941
ABS-6                   
1 25924U 99053A   26072.74425023 -.00000120  00000+0  00000+0 0  9994
2 25924   0.0254 225.9146 0002861 115.9128 256.4847  1.00271782 96883
